OCEANSAT-2              
1 35931U 09051A   26192.14737726 -.00000143  00000+0 -72266-4 0  9999
2 35931  98.2318 176.6068 0017081 165.2051 194.9619 13.99656669882686
WORLDVIEW-2 (WV-2)      
1 35946U 09055A   26192.17093391  .00000047  00000+0  30005-4 0  9991
2 35946  98.4757 265.2939 0005143 139.5614 220.5957 14.37906299879090
SMOS                    
1 36036U 09059A   26190.98409889  .00000150  00000+0  61818-4 0  9997
2 36036  98.4429  17.9851 0001140  95.2282 264.9037 14.39733948876734
YAOGAN-7                
1 36110U 09069A   26189.61704388  .00000339  00000+0  54067-4 0  9998
2 36110  98.0044  75.3492 0023935 333.3807  26.6172 14.78031471892792
TANDEM-X                
1 36605U 10030A   26188.47915494  .00000386  00000+0  21566-4 0  9992
2 36605  97.4457 195.8973 0001887  94.3019 265.8431 15.19154052889726
CARTOSAT-2B             
1 36795U 10035A   26192.15979573  .00000178  00000+0  31419-4 0  9992
2 36795  97.9945 242.5545 0012483 110.9006 249.3543 14.78613343863396
YAOGAN-10               
1 36834U 10038A   26192.20289381  .00000641  00000+0  80697-4 0  9993
2 36834  97.8978 215.4156 0001671  82.4199   5.0990 14.85420889860776
COSMO-SKYMED 4          
1 37216U 10060A   26192.20743904  .00000600  00000+0  81924-4 0  9998
2 37216  97.8896  15.4599 0001511  84.2375 275.9010 14.82147704848123
RESOURCESAT-2           
1 37387U 11015A   26192.15993981  .00000004  00000+0  21970-4 0  9997
2 37387  98.7633 259.4349 0011354 182.4342 177.6782 14.21605302789589
HAIYANG-2A              
1 37781U 11043A   26192.21425749 -.00000081  00000+0 -40204-4 0  9993
2 37781  99.3402 194.3429 0002934  40.1348 320.0017 13.73481015749955
RASAT                   
1 37791U 11044D   26192.22894383  .00000288  00000+0  58371-4 0  9991
2 37791  98.0576 283.2593 0021823 114.5247 273.4271 14.68190321796717
SRMSAT                  
1 37841U 11058D   26191.25823061  .00000355  00000+0  48960-4 0  9997
2 37841  19.9719 279.8299 0011870  97.3618 287.0554 14.11580397761080
PLEIADES 1A             
1 38012U 11076F   26192.20787809  .00000058  00000+0  22319-4 0  9993
2 38012  98.1971 266.9871 0001718  82.2442 354.5419 14.58545496775493
ZIYUAN 1-02C (ZY 1-02C) 
1 38038U 11079A   26192.22237597  .00000118  00000+0  52964-4 0  9996
2 38038  98.4063 259.0276 0005386 228.4676 223.8087 14.38233415762663
ARIRANG-3 (KOMPSAT-3)   
1 38338U 12025B   26192.18852957  .00000214  00000+0  51764-4 0  9993
2 38338  98.1183 149.2362 0006443  49.3613 310.8148 14.62226965754854
EXACTVIEW-1 (ADS-1B)    
1 38709U 12039C   26190.28848470  .00000066  00000+0  48059-4 0  9992
2 38709  98.9798 308.1803 0011932 106.9299 253.3189 14.24991160725859
SPOT 6                  
1 38755U 12047A   26192.14002050 -.00000052  00000+0 -12665-5 0  9997
2 38755  98.2111 259.1672 0001137  83.3658 276.7671 14.58537025736540
PLEIADES 1B             
1 39019U 12068A   26192.15860299 -.00000053  00000+0 -16031-5 0  9994
2 39019  98.1940 266.8794 0001614  81.0864 279.0518 14.58532511724343
GOKTURK 2               
1 39030U 12073A   26192.15422537 -.00000166  00000+0 -17532-4 0  9993
2 39030  97.6819  28.3837 0000915  81.5533 278.5780 14.75564430728045
LANDSAT 8               
1 39084U 13008A   26192.19655833  .00000160  00000+0  45590-4 0  9999
2 39084  98.2291 262.0455 0001341  93.8715 266.2637 14.57110210701397
SARAL                   
1 39086U 13009A   26192.20208110  .00000054  00000+0  35688-4 0  9995
2 39086  98.5554  18.4656 0001458 177.0642 183.0551 14.32895122699047
GAOFEN-1                
1 39150U 13018A   26192.18829689  .00000220  00000+0  38856-4 0  9999
2 39150  97.9087 263.7674 0016748 184.0140 176.0938 14.76516266711781
VNREDSAT 1              
1 39160U 13021B   26192.20120964  .00000350  00000+0  73955-4 0  9990
2 39160  97.9072 244.6944 0001630  81.4843 278.6545 14.64881660703805
ARIRANG-5 (KOMPSAT-5)   
1 39227U 13042A   26192.17553499  .00000753  00000+0  58114-4 0  9993
2 39227  97.6219  18.5395 0005579  68.4409 291.7411 15.04520853707469
SKYSAT-A                
1 39418U 13066C   26192.06564227  .00001644  00000+0  96068-4 0  9990
2 39418  97.3805 240.7017 0020122 228.3568 131.5941 15.13102101692096
DUBAISAT-2              
1 39419U 13066D   26192.18767635  .00003031  00000+0  18837-3 0  9991
2 39419  97.4570 181.7064 0009765 318.0505  41.9976 15.10357453690012
GPM-CORE                
1 39574U 14009C   26192.16237383  .00003637  00000+0  82019-4 0  9997
2 39574  64.9698 227.8025 0011045 260.6500  99.3392 15.45013305701514
SENTINEL-1A             
1 39634U 14016A   26192.16176225  .00000022  00000+0  14446-4 0  9993
2 39634  98.1787 199.3444 0001442  85.0521 275.0843 14.59199753653515
KAZEOSAT 1              
1 39731U 14024A   26192.16772976 -.00000054  00000+0 -35792-5 0  9990
2 39731  98.3200 264.0174 0001265  83.0801 277.0533 14.42036085642018
ALOS-2                  
1 39766U 14029A   26192.08119866  .00000414  00000+0  62362-4 0  9997
2 39766  97.9222 288.9034 0001625  93.1254 267.0143 14.79474805655116
KAZEOSAT 2              
1 40010U 14033A   26192.14273932 -.00000085  00000+0 -40001-5 0  9991
2 40010  97.5405  30.4884 0007124 235.4314 124.6230 14.85496305652512
